[{"OBJECT_NAME":"STARLINK-35492","OBJECT_ID":"2025-225S","EPOCH":"2026-03-09T12:08:43.736928","MEAN_MOTION":15.30212672,"ECCENTRICITY":0.00010603,"INCLINATION":53.1591,"RA_OF_ASC_NODE":166.2683,"ARG_OF_PERICENTER":123.8936,"MEAN_ANOMALY":236.2166,"EPHEMERIS_TYPE":0,"CLASSIFICATION_TYPE":"U","NORAD_CAT_ID":65926,"ELEMENT_SET_NO":999,"REV_AT_EPOCH":2438,"BSTAR":0.00080433706,"MEAN_MOTION_DOT":0.00023548,"MEAN_MOTION_DDOT":0},{"OBJECT_NAME":"CZ-4C R\/B","OBJECT_ID":"2024-089B","EPOCH":"2026-03-09T16:45:24.409152","MEAN_MOTION":15.30115456,"ECCENTRICITY":0.00763424,"INCLINATION":97.7122,"RA_OF_ASC_NODE":107.3872,"ARG_OF_PERICENTER":235.0262,"MEAN_ANOMALY":124.3793,"EPHEMERIS_TYPE":0,"CLASSIFICATION_TYPE":"U","NORAD_CAT_ID":59729,"ELEMENT_SET_NO":999,"REV_AT_EPOCH":10143,"BSTAR":0.00030010198,"MEAN_MOTION_DOT":9.476e-5,"MEAN_MOTION_DDOT":0}]
